#dV2007  4 12  0  0  0.00000000     289 ORBIT J2000 BHN ESOC                    
## 1422 345600.00000000   900.00000000 54202 0.0000000000000                    
+    2   G01G02  0  0  0  0  0  0  0  0  0  0  0  0  0  0  0                    
+          0  0  0  0  0  0  0  0  0  0  0  0  0  0  0  0  0                    
+          0  0  0  0  0  0  0  0  0  0  0  0  0  0  0  0  0                    
+          0  0  0  0  0  0  0  0  0  0  0  0  0  0  0  0  0                    
+          0  0  0  0  0  0  0  0  0  0  0  0  0  0  0  0  0                    
++         8  8  0  0  0  0  0  0  0  0  0  0  0  0  0  0  0                    
++         0  0  0  0  0  0  0  0  0  0  0  0  0  0  0  0  0                    
++         0  0  0  0  0  0  0  0  0  0  0  0  0  0  0  0  0                    
++         0  0  0  0  0  0  0  0  0  0  0  0  0  0  0  0  0                    
++         0  0  0  0  0  0  0  0  0  0  0  0  0  0  0  0  0                    
%c M  cc GPS ccc cccc cccc cccc cccc ccccc ccccc ccccc ccccc                    
%c cc cc ccc ccc cccc cccc cccc cccc ccccc ccccc ccccc ccccc                    
%f  0.0000000  0.000000000  0.00000000000  0.000000000000000                    
%f  0.0000000  0.000000000  0.00000000000  0.000000000000000                    
%i    0    0    0    0      0      0      0      0         0                    
%i    0    0    0    0      0      0      0      0         0                    
/* CCCCCCCCCCCCCCCCCCCCCCCCCCCCCCCCCCCCCCCCCCCCCCCCCCCCCCCCCCCCCCCCCCCCCCCCCCCCC
/* CCCCCCCCCCCCCCCCCCCCCCCCCCCCCCCCCCCCCCCCCCCCCCCCCCCCCCCCCCCCCCCCCCCCCCCCCCCCC
/* CCCCCCCCCCCCCCCCCCCCCCCCCCCCCCCCCCCCCCCCCCCCCCCCCCCCCCCCCCCCCCCCCCCCCCCCCCCCC
/* PCV:IGS14      OL/AL:EOT11A   NONE     YN ORB:CoN CLK:CoN                    
*  2007  4 14 12  0  0.00000000                                                 
PG01  -1141.157227  14720.474292  22286.679484 999999.999999                    
VG01 -37792.503390  -6819.281177   2532.814637 999999.999999                    
PG02  -3142.961692 -25181.867045   8070.606583 999999.999999                    
VG02  24709.220534   6548.876087  28974.022141 999999.999999                    
*  2007  4 14 12 15  0.00000000                                                 
PG01  -4523.284749  13984.276977  22325.935018 999999.999999                    
VG01 -37259.979009  -9517.824747  -1662.025064 999999.999999                    
PG02   -898.613474 -24378.935601  10601.842675 999999.999999                    
VG02  25094.198108  11271.214152  27194.353396 999999.999999                    
*  2007  4 14 12 30  0.00000000                                                 
PG01  -7829.059027  13012.038481  21988.277717 999999.999999                    
VG01 -36097.975784 -12057.360868  -5831.447486 999999.999999                    
PG02   1361.107262 -23158.371508  12951.397473 999999.999999                    
VG02  25049.859199  15816.182543  24941.875775 999999.999999                    
*  2007  4 14 12 45  0.00000000                                                 
PG01 -11002.574035  11819.995866  21279.113410 999999.999999                    
VG01 -34324.755932 -14395.537409  -9906.279999 999999.999999                    
PG02   3597.408699 -21539.725995  15078.251678 999999.999999                    
VG02  24574.019146  20104.487486  22252.046012 999999.999999                    
*  2007  4 14 13  0  0.00000000                                                 
PG01 -13990.012189  10428.065149  20210.025168 999999.999999                    
VG01 -31968.423657 -16493.056199 -13818.592901 999999.999999                    
PG02   5771.635549 -19549.546776  16944.942942 999999.999999                    
VG02  23671.925798  24060.184963  19168.373138 999999.999999                    
*  2007  4 14 13 15  0.00000000                                                 
PG01 -16740.516524   8859.538704  18798.615572 999999.999999                    
VG01 -29066.601846 -18314.284902 -17502.718952 999999.999999                    
PG02   7845.943927 -17221.011764  18518.267020 999999.999999                    
VG02  22356.369642  27612.121019  15741.865975 999999.999999                    
*  2007  4 14 13 30  0.00000000                                                 
PG01 -19207.028040   7140.728947  17068.257318 999999.999999                    
VG01 -25665.980611 -19827.837425 -20896.269050 999999.999999                    
PG02   9783.979942 -14593.433622  19769.921336 999999.999999                    
VG02  20647.653680  30695.356014  12030.305839 999999.999999                    
*  2007  4 14 13 45  0.00000000                                                 
PG01 -21347.076457   5300.561494  15047.752942 999999.999999                    
VG01 -21821.732690 -21007.115328 -23941.134572 999999.999999                    
PG02  11551.548759 -11711.638203  20677.075238 999999.999999                    
VG02  18573.410143  33252.536350   8097.345338 999999.999999                    
*  2007  4 14 14  0  0.00000000                                                 
PG01 -23123.512205   3370.121670  12770.905367 999999.999999                    
VG01 -17596.791284 -21830.801256 -26584.464393 999999.999999                    
PG02  13117.259927  -8625.223393  21222.851571 999999.999999                    
VG02  16168.254983  35235.173912   4011.440633 999999.999999                    
*  2007  4 14 14 15  0.00000000                                                 
PG01 -24505.167103   1382.159159  10276.002202 999999.999999                    
VG01 -13060.987423 -22283.293825 -28779.601923 999999.999999                    
PG02  14453.134123  -5387.708504  21396.705180 999999.999999                    
VG02  13473.275848  36604.791546   -155.368248 999999.999999                    
*  2007  4 14 14 30  0.00000000                                                 
PG01 -25467.431063   -629.443419   7605.218150 999999.999999                    
VG01  -8290.046610 -22355.072249 -30486.964724 999999.999999                    
PG02  15535.156353  -2055.588163  21194.685598 999999.999999                    
VG02  10535.355123  37333.893120  -4328.806978 999999.999999                    
*  2007  4 14 14 45  0.00000000                                                 
PG01 -25992.732264  -2630.231108   4803.941563 999999.999999                    
VG01  -3364.448051 -22042.978150 -31674.846950 999999.999999                    
PG02  16343.761096   1312.691713  20619.573512 999999.999999                    
VG02   7406.336093  37406.719049  -8433.816972 999999.999999                    
*  2007  4 14 15  0  0.00000000                                                 
PG01 -26070.908752  -4585.758377   1920.033065 999999.999999                    
VG01   1631.845547 -21350.401797 -32320.122913 999999.999999                    
PG02  16864.235853   4657.814997  19680.883524 999999.999999                    
VG02   4142.047159  36819.752959 -12396.069906 999999.999999                    
*  2007  4 14 15 15  0.00000000                                                 
PG01 -25699.460386  -6462.182882   -996.973849 999999.999999                    
VG01   6612.774353 -20287.360535 -32408.829098 999999.999999                    
PG02  17087.031303   7920.709762  18394.729247 999999.999999                    
VG02    801.205806  35581.952280 -16143.505283 999999.999999                    
*  2007  4 14 15 30  0.00000000                                                 
PG01 -24883.671456  -8226.861015  -3896.718279 999999.999999                    
VG01  11491.664806 -18870.458504 -31936.601982 999999.999999                    
PG02  17007.968416  11043.670321  16783.550655 999999.999999                    
VG02  -2555.769741  33714.684737 -19607.846031 999999.999999                    
*  2007  4 14 15 45  0.00000000                                                 
PG01 -23636.596367  -9848.934153  -6728.889487 999999.999999                    
VG01  16182.784970 -17122.718983 -30908.950334 999999.999999                    
PG02  16628.335686  13971.459991  14875.707779 999999.999999                    
VG02  -5868.008064  31251.363660 -22726.045564 999999.999999                    
*  2007  4 14 16  0  0.00000000                                                 
PG01 -21978.903227 -11299.893861  -9444.120805 999999.999999                    
VG01  20602.941113 -15073.283745 -29341.343321 999999.999999                    
PG02  15954.872797  16652.367634  12704.948945 999999.999999                    
VG02  -9075.454542  28236.786857 -25441.620807 999999.999999                    
*  2007  4 14 16 15  0.00000000                                                 
PG01 -19938.573206 -12554.113970 -11994.882633 999999.999999                    
VG01  24673.079858 -12756.977626 -27259.099802 999999.999999                    
PG02  14999.640426  19039.191928  10309.765794 999999.999999                    
VG02 -12120.125115  24726.196057 -27705.829062 999999.999999                    
*  2007  4 14 16 30  0.00000000                                                 
PG01 -17550.456931 -13589.337480 -14336.356138 999999.999999                    
VG01  28319.856493 -10213.740907 -24697.069430 999999.999999                    
PG02  13779.779375  21090.129460   7732.650774 999999.999999                    
VG02 -14947.305474  20784.085392 -29478.652554 999999.999999                    
*  2007  4 14 16 45  0.00000000                                                 
PG01 -14855.692794 -14387.106683 -16427.268748 999999.999999                    
VG01  31477.127785  -7487.936831 -21699.102537 999999.999999                    
PG02  12317.165611  22769.545693   5019.275786 999999.999999                    
VG02 -17506.659540  16482.797632 -30729.562376 999999.999999                    
EOF                                                                             
